[{"OBJECT_NAME":"YAOGAN-36 04C","OBJECT_ID":"2022-171E","EPOCH":"2026-03-09T18:55:44.889600","MEAN_MOTION":15.29852307,"ECCENTRICITY":0.00066848,"INCLINATION":34.9797,"RA_OF_ASC_NODE":96.6578,"ARG_OF_PERICENTER":275.3761,"MEAN_ANOMALY":84.6192,"EPHEMERIS_TYPE":0,"CLASSIFICATION_TYPE":"U","NORAD_CAT_ID":54750,"ELEMENT_SET_NO":999,"REV_AT_EPOCH":18024,"BSTAR":0.00054591902,"MEAN_MOTION_DOT":0.00016196,"MEAN_MOTION_DDOT":0},{"OBJECT_NAME":"STARLINK-32276","OBJECT_ID":"2024-155W","EPOCH":"2026-03-09T11:09:37.430784","MEAN_MOTION":15.30180708,"ECCENTRICITY":0.00012642,"INCLINATION":53.1601,"RA_OF_ASC_NODE":130.9073,"ARG_OF_PERICENTER":79.1509,"MEAN_ANOMALY":280.9634,"EPHEMERIS_TYPE":0,"CLASSIFICATION_TYPE":"U","NORAD_CAT_ID":60944,"ELEMENT_SET_NO":999,"REV_AT_EPOCH":8635,"BSTAR":-8.922271e-6,"MEAN_MOTION_DOT":-6.23e-6,"MEAN_MOTION_DDOT":0}]
